<?xml version="1.0" encoding="UTF-8"?>
<ndm xmlns:xsi="http://www.w3.org/2001/XMLSchema-instance" xsi:noNamespaceSchemaLocation="https://sanaregistry.org/r/ndmxml_unqualified/ndmxml-2.0.0-master-2.0.xsd">
<omm id="CCSDS_OMM_VERS" version="2.0">
<header><CREATION_DATE/><ORIGINATOR/></header><body><segment><metadata><OBJECT_NAME>KUIPER-00044</OBJECT_NAME><OBJECT_ID>2025-134F</OBJECT_ID><CENTER_NAME>EARTH</CENTER_NAME><REF_FRAME>TEME</REF_FRAME><TIME_SYSTEM>UTC</TIME_SYSTEM><MEAN_ELEMENT_THEORY>SGP4</MEAN_ELEMENT_THEORY></metadata><data><meanElements><EPOCH>2025-11-18T14:17:29.623200</EPOCH><MEAN_MOTION>14.80071292</MEAN_MOTION><ECCENTRICITY>.00113695</ECCENTRICITY><INCLINATION>51.9018</INCLINATION><RA_OF_ASC_NODE>17.8449</RA_OF_ASC_NODE><ARG_OF_PERICENTER>266.2471</ARG_OF_PERICENTER><MEAN_ANOMALY>93.7192</MEAN_ANOMALY></meanElements><tleParameters><EPHEMERIS_TYPE>0</EPHEMERIS_TYPE><CLASSIFICATION_TYPE>U</CLASSIFICATION_TYPE><NORAD_CAT_ID>64505</NORAD_CAT_ID><ELEMENT_SET_NO>999</ELEMENT_SET_NO><REV_AT_EPOCH>2343</REV_AT_EPOCH><BSTAR>.59135862E-3</BSTAR><MEAN_MOTION_DOT>.4307E-4</MEAN_MOTION_DOT><MEAN_MOTION_DDOT>0</MEAN_MOTION_DDOT></tleParameters></data></segment></body></omm>
<omm id="CCSDS_OMM_VERS" version="2.0">
<header><CREATION_DATE/><ORIGINATOR/></header><body><segment><metadata><OBJECT_NAME>KUIPER-00046</OBJECT_NAME><OBJECT_ID>2025-134G</OBJECT_ID><CENTER_NAME>EARTH</CENTER_NAME><REF_FRAME>TEME</REF_FRAME><TIME_SYSTEM>UTC</TIME_SYSTEM><MEAN_ELEMENT_THEORY>SGP4</MEAN_ELEMENT_THEORY></metadata><data><meanElements><EPOCH>2025-11-18T20:51:39.654144</EPOCH><MEAN_MOTION>14.80210503</MEAN_MOTION><ECCENTRICITY>.0011881</ECCENTRICITY><INCLINATION>51.9004</INCLINATION><RA_OF_ASC_NODE>13.0980</RA_OF_ASC_NODE><ARG_OF_PERICENTER>276.0426</ARG_OF_PERICENTER><MEAN_ANOMALY>83.9182</MEAN_ANOMALY></meanElements><tleParameters><EPHEMERIS_TYPE>0</EPHEMERIS_TYPE><CLASSIFICATION_TYPE>U</CLASSIFICATION_TYPE><NORAD_CAT_ID>64506</NORAD_CAT_ID><ELEMENT_SET_NO>999</ELEMENT_SET_NO><REV_AT_EPOCH>2352</REV_AT_EPOCH><BSTAR>.79433862E-3</BSTAR><MEAN_MOTION_DOT>.5884E-4</MEAN_MOTION_DOT><MEAN_MOTION_DDOT>0</MEAN_MOTION_DDOT></tleParameters></data></segment></body></omm>
<omm id="CCSDS_OMM_VERS" version="2.0">
<header><CREATION_DATE/><ORIGINATOR/></header><body><segment><metadata><OBJECT_NAME>KUIPER-00047</OBJECT_NAME><OBJECT_ID>2025-134H</OBJECT_ID><CENTER_NAME>EARTH</CENTER_NAME><REF_FRAME>TEME</REF_FRAME><TIME_SYSTEM>UTC</TIME_SYSTEM><MEAN_ELEMENT_THEORY>SGP4</MEAN_ELEMENT_THEORY></metadata><data><meanElements><EPOCH>2025-11-18T18:09:48.417696</EPOCH><MEAN_MOTION>14.82728864</MEAN_MOTION><ECCENTRICITY>.00077631</ECCENTRICITY><INCLINATION>51.8992</INCLINATION><RA_OF_ASC_NODE>345.6875</RA_OF_ASC_NODE><ARG_OF_PERICENTER>287.0256</ARG_OF_PERICENTER><MEAN_ANOMALY>72.9857</MEAN_ANOMALY></meanElements><tleParameters><EPHEMERIS_TYPE>0</EPHEMERIS_TYPE><CLASSIFICATION_TYPE>U</CLASSIFICATION_TYPE><NORAD_CAT_ID>64507</NORAD_CAT_ID><ELEMENT_SET_NO>999</ELEMENT_SET_NO><REV_AT_EPOCH>2389</REV_AT_EPOCH><BSTAR>.60814413E-3</BSTAR><MEAN_MOTION_DOT>.4735E-4</MEAN_MOTION_DOT><MEAN_MOTION_DDOT>0</MEAN_MOTION_DDOT></tleParameters></data></segment></body></omm>
<omm id="CCSDS_OMM_VERS" version="2.0">
<header><CREATION_DATE/><ORIGINATOR/></header><body><segment><metadata><OBJECT_NAME>KUIPER-00048</OBJECT_NAME><OBJECT_ID>2025-134J</OBJECT_ID><CENTER_NAME>EARTH</CENTER_NAME><REF_FRAME>TEME</REF_FRAME><TIME_SYSTEM>UTC</TIME_SYSTEM><MEAN_ELEMENT_THEORY>SGP4</MEAN_ELEMENT_THEORY></metadata><data><meanElements><EPOCH>2025-11-19T00:00:02.000160</EPOCH><MEAN_MOTION>14.79138793</MEAN_MOTION><ECCENTRICITY>.00027538</ECCENTRICITY><INCLINATION>51.8998</INCLINATION><RA_OF_ASC_NODE>345.0476</RA_OF_ASC_NODE><ARG_OF_PERICENTER>3.1429</ARG_OF_PERICENTER><MEAN_ANOMALY>172.4262</MEAN_ANOMALY></meanElements><tleParameters><EPHEMERIS_TYPE>0</EPHEMERIS_TYPE><CLASSIFICATION_TYPE>U</CLASSIFICATION_TYPE><NORAD_CAT_ID>64508</NORAD_CAT_ID><ELEMENT_SET_NO>999</ELEMENT_SET_NO><REV_AT_EPOCH>429</REV_AT_EPOCH><BSTAR>.94328801E-2</BSTAR><MEAN_MOTION_DOT>.711E-3</MEAN_MOTION_DOT><MEAN_MOTION_DDOT>0</MEAN_MOTION_DDOT></tleParameters></data></segment></body></omm>
<omm id="CCSDS_OMM_VERS" version="2.0">
<header><CREATION_DATE/><ORIGINATOR/></header><body><segment><metadata><OBJECT_NAME>KUIPER-00049</OBJECT_NAME><OBJECT_ID>2025-134K</OBJECT_ID><CENTER_NAME>EARTH</CENTER_NAME><REF_FRAME>TEME</REF_FRAME><TIME_SYSTEM>UTC</TIME_SYSTEM><MEAN_ELEMENT_THEORY>SGP4</MEAN_ELEMENT_THEORY></metadata><data><meanElements><EPOCH>2025-11-18T13:06:59.542272</EPOCH><MEAN_MOTION>14.80097655</MEAN_MOTION><ECCENTRICITY>.00025971</ECCENTRICITY><INCLINATION>51.9021</INCLINATION><RA_OF_ASC_NODE>0.5182</RA_OF_ASC_NODE><ARG_OF_PERICENTER>275.1915</ARG_OF_PERICENTER><MEAN_ANOMALY>84.8751</MEAN_ANOMALY></meanElements><tleParameters><EPHEMERIS_TYPE>0</EPHEMERIS_TYPE><CLASSIFICATION_TYPE>U</CLASSIFICATION_TYPE><NORAD_CAT_ID>64509</NORAD_CAT_ID><ELEMENT_SET_NO>999</ELEMENT_SET_NO><REV_AT_EPOCH>2367</REV_AT_EPOCH><BSTAR>.59456071E-3</BSTAR><MEAN_MOTION_DOT>.4332E-4</MEAN_MOTION_DOT><MEAN_MOTION_DDOT>0</MEAN_MOTION_DDOT></tleParameters></data></segment></body></omm>
<omm id="CCSDS_OMM_VERS" version="2.0">
<header><CREATION_DATE/><ORIGINATOR/></header><body><segment><metadata><OBJECT_NAME>KUIPER-00050</OBJECT_NAME><OBJECT_ID>2025-134L</OBJECT_ID><CENTER_NAME>EARTH</CENTER_NAME><REF_FRAME>TEME</REF_FRAME><TIME_SYSTEM>UTC</TIME_SYSTEM><MEAN_ELEMENT_THEORY>SGP4</MEAN_ELEMENT_THEORY></metadata><data><meanElements><EPOCH>2025-11-18T12:50:40.577568</EPOCH><MEAN_MOTION>14.96258200</MEAN_MOTION><ECCENTRICITY>.00046609</ECCENTRICITY><INCLINATION>51.8917</INCLINATION><RA_OF_ASC_NODE>356.8743</RA_OF_ASC_NODE><ARG_OF_PERICENTER>314.5574</ARG_OF_PERICENTER><MEAN_ANOMALY>45.5014</MEAN_ANOMALY></meanElements><tleParameters><EPHEMERIS_TYPE>0</EPHEMERIS_TYPE><CLASSIFICATION_TYPE>U</CLASSIFICATION_TYPE><NORAD_CAT_ID>64510</NORAD_CAT_ID><ELEMENT_SET_NO>999</ELEMENT_SET_NO><REV_AT_EPOCH>2372</REV_AT_EPOCH><BSTAR>.59681176E-3</BSTAR><MEAN_MOTION_DOT>.6561E-4</MEAN_MOTION_DOT><MEAN_MOTION_DDOT>0</MEAN_MOTION_DDOT></tleParameters></data></segment></body></omm>
<omm id="CCSDS_OMM_VERS" version="2.0">
<header><CREATION_DATE/><ORIGINATOR/></header><body><segment><metadata><OBJECT_NAME>KUIPER-00051</OBJECT_NAME><OBJECT_ID>2025-134M</OBJECT_ID><CENTER_NAME>EARTH</CENTER_NAME><REF_FRAME>TEME</REF_FRAME><TIME_SYSTEM>UTC</TIME_SYSTEM><MEAN_ELEMENT_THEORY>SGP4</MEAN_ELEMENT_THEORY></metadata><data><meanElements><EPOCH>2025-11-18T19:40:59.488608</EPOCH><MEAN_MOTION>14.79966533</MEAN_MOTION><ECCENTRICITY>.00018325</ECCENTRICITY><INCLINATION>51.9048</INCLINATION><RA_OF_ASC_NODE>356.8806</RA_OF_ASC_NODE><ARG_OF_PERICENTER>288.7661</ARG_OF_PERICENTER><MEAN_ANOMALY>71.3103</MEAN_ANOMALY></meanElements><tleParameters><EPHEMERIS_TYPE>0</EPHEMERIS_TYPE><CLASSIFICATION_TYPE>U</CLASSIFICATION_TYPE><NORAD_CAT_ID>64511</NORAD_CAT_ID><ELEMENT_SET_NO>999</ELEMENT_SET_NO><REV_AT_EPOCH>2374</REV_AT_EPOCH><BSTAR>.53102802E-3</BSTAR><MEAN_MOTION_DOT>.3832E-4</MEAN_MOTION_DOT><MEAN_MOTION_DDOT>0</MEAN_MOTION_DDOT></tleParameters></data></segment></body></omm>
<omm id="CCSDS_OMM_VERS" version="2.0">
<header><CREATION_DATE/><ORIGINATOR/></header><body><segment><metadata><OBJECT_NAME>KUIPER-00052</OBJECT_NAME><OBJECT_ID>2025-134N</OBJECT_ID><CENTER_NAME>EARTH</CENTER_NAME><REF_FRAME>TEME</REF_FRAME><TIME_SYSTEM>UTC</TIME_SYSTEM><MEAN_ELEMENT_THEORY>SGP4</MEAN_ELEMENT_THEORY></metadata><data><meanElements><EPOCH>2025-11-18T05:55:27.002784</EPOCH><MEAN_MOTION>15.66919403</MEAN_MOTION><ECCENTRICITY>.00070113</ECCENTRICITY><INCLINATION>51.8679</INCLINATION><RA_OF_ASC_NODE>319.0183</RA_OF_ASC_NODE><ARG_OF_PERICENTER>356.1993</ARG_OF_PERICENTER><MEAN_ANOMALY>3.8952</MEAN_ANOMALY></meanElements><tleParameters><EPHEMERIS_TYPE>0</EPHEMERIS_TYPE><CLASSIFICATION_TYPE>U</CLASSIFICATION_TYPE><NORAD_CAT_ID>64512</NORAD_CAT_ID><ELEMENT_SET_NO>999</ELEMENT_SET_NO><REV_AT_EPOCH>2421</REV_AT_EPOCH><BSTAR>.19286452E-2</BSTAR><MEAN_MOTION_DOT>.21381E-2</MEAN_MOTION_DOT><MEAN_MOTION_DDOT>0</MEAN_MOTION_DDOT></tleParameters></data></segment></body></omm>

</ndm>
