KUIPER-00044            
1 64505U 25134F   25322.59548175  .00004307  00000+0  59136-3 0  9993
2 64505  51.9018  17.8449 0011369 266.2471  93.7192 14.80071292 23434
KUIPER-00046            
1 64506U 25134G   25322.86920896  .00005884  00000+0  79434-3 0  9992
2 64506  51.9004  13.0980 0011881 276.0426  83.9182 14.80210503 23526
KUIPER-00047            
1 64507U 25134H   25322.75681039  .00004735  00000+0  60814-3 0  9990
2 64507  51.8992 345.6875 0007763 287.0256  72.9857 14.82728864 23899
KUIPER-00048            
1 64508U 25134J   25323.00002315  .00071100  00000+0  94329-2 0  9991
2 64508  51.8998 345.0476 0002753   3.1429 172.4262 14.79138793  4291
KUIPER-00049            
1 64509U 25134K   25322.54652248  .00004332  00000+0  59456-3 0  9992
2 64509  51.9021   0.5182 0002597 275.1915  84.8751 14.80097655 23679
KUIPER-00050            
1 64510U 25134L   25322.53519187  .00006561  00000+0  59681-3 0  9993
2 64510  51.8917 356.8743 0004660 314.5574  45.5014 14.96258200 23720
KUIPER-00051            
1 64511U 25134M   25322.82013297  .00003832  00000+0  53103-3 0  9998
2 64511  51.9048 356.8806 0001832 288.7661  71.3103 14.79966533 23748
KUIPER-00052            
1 64512U 25134N   25322.24684031  .00213810  00000+0  19286-2 0  9997
2 64512  51.8679 319.0183 0007011 356.1993   3.8952 15.66919403 24216
